[
    {
        "Altitude(m)": 714396.3412322828,
        "Argument of Periapsis(deg)": 0.007973084830638947,
        "Eccentricity": 0.0,
        "Inclination(deg)": 45.0,
        "Latitude(deg)": -36.72502134232686,
        "Longitude(deg)": 56.56076826802846,
        "Mean Anomaly(deg)": -57.38124834676338,
        "RAAN(deg)": 204.99247364097926,
        "Satellite Name": "Constellation 1 920",
        "Satellite Number": 920,
        "Semi-Major Axis(m)": 7083131.272910544,
        "Time(s)": 133
    },
    {
        "Altitude(m)": 714384.52107116,
        "Argument of Periapsis(deg)": 0.008033032836884352,
        "Eccentricity": 0.0,
        "Inclination(deg)": 45.0,
        "Latitude(deg)": -36.69619907913487,
        "Longitude(deg)": 56.62303570552928,
        "Mean Anomaly(deg)": -57.32054720651354,
        "RAAN(deg)": 204.9924170518137,
        "Satellite Name": "Constellation 1 920",
        "Satellite Number": 920,
        "Semi-Major Axis(m)": 7083131.272910544,
        "Time(s)": 134
    },
    {
        "Altitude(m)": 714372.6872816086,
        "Argument of Periapsis(deg)": 0.008092980843129758,
        "Eccentricity": 0.0,
        "Inclination(deg)": 45.0,
        "Latitude(deg)": -36.66733966115843,
        "Longitude(deg)": 56.685253722618704,
        "Mean Anomaly(deg)": -57.259846066263556,
        "RAAN(deg)": 204.99236046264812,
        "Satellite Name": "Constellation 1 920",
        "Satellite Number": 920,
        "Semi-Major Axis(m)": 7083131.272910544,
        "Time(s)": 135
    },
    {
        "Altitude(m)": 714360.8399063454,
        "Argument of Periapsis(deg)": 0.008152928849375162,
        "Eccentricity": 0.0,
        "Inclination(deg)": 45.0,
        "Latitude(deg)": -36.63844315394844,
        "Longitude(deg)": 56.747422344804015,
        "Mean Anomaly(deg)": -57.19914492601371,
        "RAAN(deg)": 204.99230387348257,
        "Satellite Name": "Constellation 1 920",
        "Satellite Number": 920,
        "Semi-Major Axis(m)": 7083131.272910544,
        "Time(s)": 136
    },
    {
        "Altitude(m)": 714348.978988135,
        "Argument of Periapsis(deg)": 0.008212876855620568,
        "Eccentricity": 0.0,
        "Inclination(deg)": 45.0,
        "Latitude(deg)": -36.60950962300565,
        "Longitude(deg)": 56.80954159786423,
        "Mean Anomaly(deg)": -57.13844378576386,
        "RAAN(deg)": 204.992247284317,
        "Satellite Name": "Constellation 1 920",
        "Satellite Number": 920,
        "Semi-Major Axis(m)": 7083131.272910544,
        "Time(s)": 137
    },
    {
        "Altitude(m)": 714337.1045697805,
        "Argument of Periapsis(deg)": 0.008272824861865974,
        "Eccentricity": 0.0,
        "Inclination(deg)": 45.0,
        "Latitude(deg)": -36.58053913378074,
        "Longitude(deg)": 56.87161150784843,
        "Mean Anomaly(deg)": -57.077742645513865,
        "RAAN(deg)": 204.9921906951514,
        "Satellite Name": "Constellation 1 920",
        "Satellite Number": 920,
        "Semi-Major Axis(m)": 7083131.272910544,
        "Time(s)": 138
    },
    {
        "Altitude(m)": 714325.2166941322,
        "Argument of Periapsis(deg)": 0.00833277286811138,
        "Eccentricity": 0.0,
        "Inclination(deg)": 45.0,
        "Latitude(deg)": -36.551531751674005,
        "Longitude(deg)": 56.933632101074124,
        "Mean Anomaly(deg)": -57.01704150526403,
        "RAAN(deg)": 204.99213410598585,
        "Satellite Name": "Constellation 1 920",
        "Satellite Number": 920,
        "Semi-Major Axis(m)": 7083131.272910544,
        "Time(s)": 139
    },
    {
        "Altitude(m)": 714313.3154040878,
        "Argument of Periapsis(deg)": 0.008392720874356788,
        "Eccentricity": 0.0,
        "Inclination(deg)": 45.0,
        "Latitude(deg)": -36.52248754203483,
        "Longitude(deg)": 56.995603404126506,
        "Mean Anomaly(deg)": -56.95634036501414,
        "RAAN(deg)": 204.99207751682027,
        "Satellite Name": "Constellation 1 920",
        "Satellite Number": 920,
        "Semi-Major Axis(m)": 7083131.272910544,
        "Time(s)": 140
    },
    {
        "Altitude(m)": 714301.4007425784,
        "Argument of Periapsis(deg)": 0.008452668880602192,
        "Eccentricity": 0.0,
        "Inclination(deg)": 45.0,
        "Latitude(deg)": -36.493406570161824,
        "Longitude(deg)": 57.05752527575988,
        "Mean Anomaly(deg)": -56.89563922476421,
        "RAAN(deg)": 204.99202092765472,
        "Satellite Name": "Constellation 1 920",
        "Satellite Number": 920,
        "Semi-Major Axis(m)": 7083131.272910544,
        "Time(s)": 141
    },
    {
        "Altitude(m)": 714289.4727525909,
        "Argument of Periapsis(deg)": 0.008512616886847598,
        "Eccentricity": 0.0,
        "Inclination(deg)": 45.0,
        "Latitude(deg)": -36.46428890130165,
        "Longitude(deg)": 57.11939807928363,
        "Mean Anomaly(deg)": -56.83493808451425,
        "RAAN(deg)": 204.99196433848914,
        "Satellite Name": "Constellation 1 920",
        "Satellite Number": 920,
        "Semi-Major Axis(m)": 7083131.272910544,
        "Time(s)": 142
    },
    {
        "Altitude(m)": 714277.5314771519,
        "Argument of Periapsis(deg)": 0.008572564893093004,
        "Eccentricity": 0.0,
        "Inclination(deg)": 45.0,
        "Latitude(deg)": -36.43513460065006,
        "Longitude(deg)": 57.18122167397958,
        "Mean Anomaly(deg)": -56.77423694426449,
        "RAAN(deg)": 204.99190774932356,
        "Satellite Name": "Constellation 1 920",
        "Satellite Number": 920,
        "Semi-Major Axis(m)": 7083131.272910544,
        "Time(s)": 143
    },
    {
        "Altitude(m)": 714265.576959334,
        "Argument of Periapsis(deg)": 0.008632512899338408,
        "Eccentricity": 0.0,
        "Inclination(deg)": 45.0,
        "Latitude(deg)": -36.40594373335044,
        "Longitude(deg)": 57.24299608748923,
        "Mean Anomaly(deg)": -56.71353580401452,
        "RAAN(deg)": 204.991851160158,
        "Satellite Name": "Constellation 1 920",
        "Satellite Number": 920,
        "Semi-Major Axis(m)": 7083131.272910544,
        "Time(s)": 144
    },
    {
        "Altitude(m)": 714253.6092422388,
        "Argument of Periapsis(deg)": 0.008692460905583814,
        "Eccentricity": 0.0,
        "Inclination(deg)": 45.0,
        "Latitude(deg)": -36.37671636449434,
        "Longitude(deg)": 57.304721347713944,
        "Mean Anomaly(deg)": -56.65283466376459,
        "RAAN(deg)": 204.99179457099243,
        "Satellite Name": "Constellation 1 920",
        "Satellite Number": 920,
        "Semi-Major Axis(m)": 7083131.272910544,
        "Time(s)": 145
    },
    {
        "Altitude(m)": 714241.628369036,
        "Argument of Periapsis(deg)": 0.00875240891182922,
        "Eccentricity": 0.0,
        "Inclination(deg)": 45.0,
        "Latitude(deg)": -36.347452559120725,
        "Longitude(deg)": 57.366397482814286,
        "Mean Anomaly(deg)": -56.592133523514796,
        "RAAN(deg)": 204.99173798182687,
        "Satellite Name": "Constellation 1 920",
        "Satellite Number": 920,
        "Semi-Major Axis(m)": 7083131.272910544,
        "Time(s)": 146
    },
    {
        "Altitude(m)": 714229.6343829161,
        "Argument of Periapsis(deg)": 0.008812356918074627,
        "Eccentricity": 0.0,
        "Inclination(deg)": 45.0,
        "Latitude(deg)": -36.31815238221572,
        "Longitude(deg)": 57.428024521209444,
        "Mean Anomaly(deg)": -56.531432383264836,
        "RAAN(deg)": 204.99168139266126,
        "Satellite Name": "Constellation 1 920",
        "Satellite Number": 920,
        "Semi-Major Axis(m)": 7083131.272910544,
        "Time(s)": 147
    },
    {
        "Altitude(m)": 714217.6273271242,
        "Argument of Periapsis(deg)": 0.008872304924320031,
        "Eccentricity": 0.0,
        "Inclination(deg)": 45.0,
        "Latitude(deg)": -36.28881589871288,
        "Longitude(deg)": 57.48960232347768,
        "Mean Anomaly(deg)": -56.470731243014875,
        "RAAN(deg)": 204.9916248034957,
        "Satellite Name": "Constellation 1 920",
        "Satellite Number": 920,
        "Semi-Major Axis(m)": 7083131.272910544,
        "Time(s)": 148
    },
    {
        "Altitude(m)": 714205.607244942,
        "Argument of Periapsis(deg)": 0.008932252930565437,
        "Eccentricity": 0.0,
        "Inclination(deg)": 45.0,
        "Latitude(deg)": -36.25944317349189,
        "Longitude(deg)": 57.55113125474323,
        "Mean Anomaly(deg)": -56.410030102765006,
        "RAAN(deg)": 204.99156821433013,
        "Satellite Name": "Constellation 1 920",
        "Satellite Number": 920,
        "Semi-Major Axis(m)": 7083131.272910544,
        "Time(s)": 149
    },
    {
        "Altitude(m)": 714193.5741797024,
        "Argument of Periapsis(deg)": 0.008992200936810843,
        "Eccentricity": 0.0,
        "Inclination(deg)": 45.0,
        "Latitude(deg)": -36.2300342713794,
        "Longitude(deg)": 57.612611176093836,
        "Mean Anomaly(deg)": -56.34932896251518,
        "RAAN(deg)": 204.99151162516458,
        "Satellite Name": "Constellation 1 920",
        "Satellite Number": 920,
        "Semi-Major Axis(m)": 7083131.272910544,
        "Time(s)": 150
    },
    {
        "Altitude(m)": 714181.5281747653,
        "Argument of Periapsis(deg)": 0.009052148943056249,
        "Eccentricity": 0.0,
        "Inclination(deg)": 45.0,
        "Latitude(deg)": -36.20058925714811,
        "Longitude(deg)": 57.67404211696666,
        "Mean Anomaly(deg)": -56.288627822265184,
        "RAAN(deg)": 204.99145503599902,
        "Satellite Name": "Constellation 1 920",
        "Satellite Number": 920,
        "Semi-Major Axis(m)": 7083131.272910544,
        "Time(s)": 151
    }
]